[{"OBJECT_NAME":"SAUDISAT 5B","OBJECT_ID":"2018-102C","EPOCH":"2026-03-09T22:59:17.457216","MEAN_MOTION":15.27248504,"ECCENTRICITY":0.00120577,"INCLINATION":97.3281,"RA_OF_ASC_NODE":135.3629,"ARG_OF_PERICENTER":124.0958,"MEAN_ANOMALY":236.1427,"EPHEMERIS_TYPE":0,"CLASSIFICATION_TYPE":"U","NORAD_CAT_ID":43833,"ELEMENT_SET_NO":999,"REV_AT_EPOCH":40064,"BSTAR":0.00024926623,"MEAN_MOTION_DOT":6.596e-5,"MEAN_MOTION_DDOT":0},{"OBJECT_NAME":"STARLINK-32316","OBJECT_ID":"2024-202R","EPOCH":"2026-03-08T12:52:55.688160","MEAN_MOTION":15.27589193,"ECCENTRICITY":0.00018626,"INCLINATION":43.0039,"RA_OF_ASC_NODE":240.8393,"ARG_OF_PERICENTER":283.5853,"MEAN_ANOMALY":76.4792,"EPHEMERIS_TYPE":0,"CLASSIFICATION_TYPE":"U","NORAD_CAT_ID":61860,"ELEMENT_SET_NO":999,"REV_AT_EPOCH":7519,"BSTAR":5.813375e-5,"MEAN_MOTION_DOT":1.338e-5,"MEAN_MOTION_DDOT":0}]
